0 COSMOS 1174 DEB
1 12343U 80030R   13282.07678027  .00006650  00000-0  17195-2 0  8246
2 12343 066.4406 264.9157 0318049 256.2523 100.2987 14.24357042673101
0 COSMOS 1174 DEB
1 12343U 80030R   13283.41088461  .00006291  00000-0  16283-2 0  8273
2 12343 066.4405 261.4145 0317943 255.3964 101.1680 14.24371472673293
0 COSMOS 1174 DEB
1 12343U 80030R   13283.76197127  .00006972  00000-0  17683-2 0  8261
2 12343 066.4390 260.4933 0318578 255.0761 101.5345 14.24371500673347
0 COSMOS 1174 DEB
1 12343U 80030R   13286.07905673  .00004690  00000-0  12216-2 0  8296
2 12343 066.4401 254.4120 0317720 253.6735 102.9205 14.24397023673678
0 COSMOS 1174 DEB
1 12343U 80030R   13287.20248316  .00004664  00000-0  12150-2 0  8306
2 12343 066.4402 251.4634 0317621 252.9381 103.6695 14.24405423673838
0 COSMOS 1174 DEB
1 12343U 80030R   13288.74718008  .00005589  00000-0  14506-2 0  8311
2 12343 066.4405 247.4088 0317398 251.9230 104.7054 14.24426130674056
0 COSMOS 1174 DEB
1 12343U 80030R   13289.94079596  .00005314  00000-0  13810-2 0  8320
2 12343 066.4407 244.2758 0317274 251.1453 105.4992 14.24436745674220
0 COSMOS 1174 DEB
1 12343U 80030R   13290.99397876  .00005021  00000-0  13065-2 0  8339
2 12343 066.4410 241.5112 0317198 250.4550 106.2040 14.24446929674377
0 COSMOS 1174 DEB
1 12343U 80030R   13292.18757715  .00004880  00000-0  12707-2 0  8349
2 12343 066.4412 238.3784 0317103 249.6893 106.9864 14.24455759674545
0 COSMOS 1174 DEB
1 12343U 80030R   13294.15348493  .00006232  00000-0  16151-2 0  8358
2 12343 066.4412 233.2187 0316878 248.4157 108.2900 14.24474135674820
0 COSMOS 1174 DEB
1 12343U 80030R   13295.27684960  .00006429  00000-0  16648-2 0  8364
2 12343 066.4410 230.2704 0316875 247.6861 109.0361 14.24484558674987
